{
  "type": "FeatureCollection",
  "features": [
    {
      "type": "Feature",
      "properties": {
        "norad_id": 63772,
        "name": "BIOMASS",
        "group": "resource",
        "lat": 36.594949836329945,
        "lon": 161.75837726964352,
        "alt_km": 665.659229355033,
        "timestamp": "2025-12-08T17:43:04.552044+00:00",
        "meta_object_name": "BIOMASS",
        "meta_object_id": "2025-090A",
        "meta_epoch": "2025-12-08T06:05:42.869760",
        "meta_mean_motion": 14.67542206,
        "meta_eccentricity": 0.00012268,
        "meta_inclination": 98.0701,
        "meta_ra_of_asc_node": 167.3288,
        "meta_arg_of_pericenter": 75.8581,
        "meta_mean_anomaly": 284.276,
        "meta_ephemeris_type": 0,
        "meta_classification_type": "U",
        "meta_norad_cat_id": 63772,
        "meta_element_set_no": 999,
        "meta_rev_at_epoch": 3268,
        "meta_bstar": 0.00048516478,
        "meta_mean_motion_dot": 2.704e-05,
        "meta_mean_motion_ddot": 0,
        "tle_line1": "1 63772U 25090A   25342.25396840  .00002704  00000+0  48516-3 0  9993",
        "tle_line2": "2 63772  98.0701 167.3288 0001226  75.8581 284.2760 14.67542206 32687"
      },
      "geometry": {
        "type": "Point",
        "coordinates": [
          161.75837726964352,
          36.594949836329945
        ]
      }
    },
    {
      "type": "Feature",
      "properties": {
        "norad_id": 64694,
        "name": "GOSAT-GW (IBUKI GW)",
        "group": "resource",
        "lat": -65.05778700136463,
        "lon": 80.62531384212339,
        "alt_km": 677.0919534987333,
        "timestamp": "2025-12-08T17:43:04.552055+00:00",
        "meta_object_name": "GOSAT-GW (IBUKI GW)",
        "meta_object_id": "2025-141A",
        "meta_epoch": "2025-12-08T06:46:52.173120",
        "meta_mean_motion": 14.67563212,
        "meta_eccentricity": 0.00014947,
        "meta_inclination": 98.0423,
        "meta_ra_of_asc_node": 277.8764,
        "meta_arg_of_pericenter": 82.469,
        "meta_mean_anomaly": 277.6684,
        "meta_ephemeris_type": 0,
        "meta_classification_type": "U",
        "meta_norad_cat_id": 64694,
        "meta_element_set_no": 999,
        "meta_rev_at_epoch": 2384,
        "meta_bstar": 0.00037470327,
        "meta_mean_motion_dot": 2.079e-05,
        "meta_mean_motion_ddot": 0,
        "tle_line1": "1 64694U 25141A   25342.28254830  .00002079  00000+0  37470-3 0  9991",
        "tle_line2": "2 64694  98.0423 277.8764 0001494  82.4690 277.6684 14.67563212 23849"
      },
      "geometry": {
        "type": "Point",
        "coordinates": [
          80.62531384212339,
          -65.05778700136463
        ]
      }
    },
    {
      "type": "Feature",
      "properties": {
        "norad_id": 64876,
        "name": "IONOSFERA-M 3",
        "group": "resource",
        "lat": -12.049888038437665,
        "lon": 122.87129055087019,
        "alt_km": 825.8377009255082,
        "timestamp": "2025-12-08T17:43:04.552066+00:00",
        "meta_object_name": "IONOSFERA-M 3",
        "meta_object_id": "2025-155A",
        "meta_epoch": "2025-12-08T04:59:29.971392",
        "meta_mean_motion": 14.21439336,
        "meta_eccentricity": 0.00023363,
        "meta_inclination": 98.5778,
        "meta_ra_of_asc_node": 304.2025,
        "meta_arg_of_pericenter": 67.1248,
        "meta_mean_anomaly": 293.0176,
        "meta_ephemeris_type": 0,
        "meta_classification_type": "U",
        "meta_norad_cat_id": 64876,
        "meta_element_set_no": 999,
        "meta_rev_at_epoch": 1927,
        "meta_bstar": 0.00010142694,
        "meta_mean_motion_dot": 1.79e-06,
        "meta_mean_motion_ddot": 0,
        "tle_line1": "1 64876U 25155A   25342.20798578  .00000179  00000+0  10143-3 0  9999",
        "tle_line2": "2 64876  98.5778 304.2025 0002336  67.1248 293.0176 14.21439336 19278"
      },
      "geometry": {
        "type": "Point",
        "coordinates": [
          122.87129055087019,
          -12.049888038437665
        ]
      }
    },
    {
      "type": "Feature",
      "properties": {
        "norad_id": 64877,
        "name": "IONOSFERA-M 4",
        "group": "resource",
        "lat": 12.418449543039673,
        "lon": -57.26732517634177,
        "alt_km": 820.9389277902583,
        "timestamp": "2025-12-08T17:43:04.552077+00:00",
        "meta_object_name": "IONOSFERA-M 4",
        "meta_object_id": "2025-155B",
        "meta_epoch": "2025-12-08T07:31:21.758592",
        "meta_mean_motion": 14.21440487,
        "meta_eccentricity": 0.0001691,
        "meta_inclination": 98.5777,
        "meta_ra_of_asc_node": 304.2246,
        "meta_arg_of_pericenter": 67.874,
        "meta_mean_anomaly": 292.2617,
        "meta_ephemeris_type": 0,
        "meta_classification_type": "U",
        "meta_norad_cat_id": 64877,
        "meta_element_set_no": 999,
        "meta_rev_at_epoch": 1928,
        "meta_bstar": 0.00010165844,
        "meta_mean_motion_dot": 1.8e-06,
        "meta_mean_motion_ddot": 0,
        "tle_line1": "1 64877U 25155B   25342.31344628  .00000180  00000+0  10166-3 0  9992",
        "tle_line2": "2 64877  98.5777 304.2246 0001691  67.8740 292.2617 14.21440487 19281"
      },
      "geometry": {
        "type": "Point",
        "coordinates": [
          -57.26732517634177,
          12.418449543039673
        ]
      }
    },
    {
      "type": "Feature",
      "properties": {
        "norad_id": 64899,
        "name": "MICROCARB",
        "group": "resource",
        "lat": 20.29859896222639,
        "lon": -118.86938845105205,
        "alt_km": 642.7386335914425,
        "timestamp": "2025-12-08T17:43:04.552087+00:00",
        "meta_object_name": "MICROCARB",
        "meta_object_id": "2025-156A",
        "meta_epoch": "2025-12-08T05:34:37.247520",
        "meta_mean_motion": 14.72046407,
        "meta_eccentricity": 0.00168404,
        "meta_inclination": 98.0029,
        "meta_ra_of_asc_node": 57.65,
        "meta_arg_of_pericenter": 158.626,
        "meta_mean_anomaly": 201.5654,
        "meta_ephemeris_type": 0,
        "meta_classification_type": "U",
        "meta_norad_cat_id": 64899,
        "meta_element_set_no": 999,
        "meta_rev_at_epoch": 1987,
        "meta_bstar": 0.00024023272,
        "meta_mean_motion_dot": 1.463e-05,
        "meta_mean_motion_ddot": 0,
        "tle_line1": "1 64899U 25156A   25342.23237555  .00001463  00000+0  24023-3 0  9990",
        "tle_line2": "2 64899  98.0029  57.6500 0016840 158.6260 201.5654 14.72046407 19879"
      },
      "geometry": {
        "type": "Point",
        "coordinates": [
          -118.86938845105205,
          20.29859896222639
        ]
      }
    },
    {
      "type": "Feature",
      "properties": {
        "norad_id": 64900,
        "name": "CO3D 3",
        "group": "resource",
        "lat": -48.073709239344296,
        "lon": -129.19711338703505,
        "alt_km": 512.510792056094,
        "timestamp": "2025-12-08T17:43:04.552098+00:00",
        "meta_object_name": "CO3D 3",
        "meta_object_id": "2025-156B",
        "meta_epoch": "2025-12-08T05:39:27.539424",
        "meta_mean_motion": 15.20211807,
        "meta_eccentricity": 0.00013183,
        "meta_inclination": 97.4342,
        "meta_ra_of_asc_node": 58.6677,
        "meta_arg_of_pericenter": 110.7986,
        "meta_mean_anomaly": 249.339,
        "meta_ephemeris_type": 0,
        "meta_classification_type": "U",
        "meta_norad_cat_id": 64900,
        "meta_element_set_no": 999,
        "meta_rev_at_epoch": 2052,
        "meta_bstar": 0.00041215775,
        "meta_mean_motion_dot": 8.868e-05,
        "meta_mean_motion_ddot": 0,
        "tle_line1": "1 64900U 25156B   25342.23573541  .00008868  00000+0  41216-3 0  9990",
        "tle_line2": "2 64900  97.4342  58.6677 0001318 110.7986 249.3390 15.20211807 20520"
      },
      "geometry": {
        "type": "Point",
        "coordinates": [
          -129.19711338703505,
          -48.073709239344296
        ]
      }
    },
    {
      "type": "Feature",
      "properties": {
        "norad_id": 64901,
        "name": "CO3D 4",
        "group": "resource",
        "lat": -47.2502463516575,
        "lon": -128.9571339527172,
        "alt_km": 511.27152964211473,
        "timestamp": "2025-12-08T17:43:04.552108+00:00",
        "meta_object_name": "CO3D 4",
        "meta_object_id": "2025-156C",
        "meta_epoch": "2025-12-08T04:04:53.319648",
        "meta_mean_motion": 15.20213667,
        "meta_eccentricity": 0.00011054,
        "meta_inclination": 97.4339,
        "meta_ra_of_asc_node": 58.6031,
        "meta_arg_of_pericenter": 222.8065,
        "meta_mean_anomaly": 137.3084,
        "meta_ephemeris_type": 0,
        "meta_classification_type": "U",
        "meta_norad_cat_id": 64901,
        "meta_element_set_no": 999,
        "meta_rev_at_epoch": 2051,
        "meta_bstar": 0.00041097104,
        "meta_mean_motion_dot": 8.842e-05,
        "meta_mean_motion_ddot": 0,
        "tle_line1": "1 64901U 25156C   25342.17006157  .00008842  00000+0  41097-3 0  9997",
        "tle_line2": "2 64901  97.4339  58.6031 0001105 222.8065 137.3084 15.20213667 20519"
      },
      "geometry": {
        "type": "Point",
        "coordinates": [
          -128.9571339527172,
          -47.2502463516575
        ]
      }
    }
  ]
}